STARLINK-5036           
1 53917U 22119AH  26068.94882152  .00000901  00000+0  74660-4 0  9997
2 53917  53.2198 312.9791 0001481 108.3264 251.7890 15.08844600191868
LEMUR-2-LLOYD           
1 60577U 24149DP  26068.46001441  .00012007  00000+0  80143-3 0  9995
2 60577  97.6780 149.6779 0005186 125.6096 234.5616 15.07168338 85367
